{"type": "FeatureCollection", "features": [ {"type": "Feature", "properties": {"norad_id": 52984, "name": "COSMOS 2557 (706K)", "group": "gnss", "lat": -64.29038068263384, "lon": -122.99340406650161, "alt_km": 19101.422623981143, "timestamp": "2025-12-02T08:59:32.957893+00:00", "meta": {"OBJECT_NAME": "COSMOS 2557 (706K)", "OBJECT_ID": "2022-075A", "EPOCH": "2025-12-01T01:56:28.375008", "MEAN_MOTION": 2.13101767, "ECCENTRICITY": 0.00137561, "INCLINATION": 64.4163, "RA_OF_ASC_NODE": 321.4618, "ARG_OF_PERICENTER": 276.3647, "MEAN_ANOMALY": 83.4921, "EPHEMERIS_TYPE": 0, "CLASSIFICATION_TYPE": "U", "NORAD_CAT_ID": 52984, "ELEMENT_SET_NO": 999, "REV_AT_EPOCH": 2649, "BSTAR": 0, "MEAN_MOTION_DOT": -2.7e-07, "MEAN_MOTION_DDOT": 0}, "tle": {"line1": "1 52984U 22075A   25335.08088397 -.00000027  00000+0  00000+0 0  9993", "line2": "2 52984  64.4163 321.4618 0013756 276.3647  83.4921  2.13101767 26492"}}, "geometry": {"type": "Point", "coordinates": [-122.99340406650161, -64.29038068263384]}}, {"type": "Feature", "properties": {"norad_id": 54031, "name": "COSMOS 2559 (707K)", "group": "gnss", "lat": 44.6406536229927, "lon": -10.219039917296474, "alt_km": 19148.94697747151, "timestamp": "2025-12-02T08:59:32.957904+00:00", "meta": {"OBJECT_NAME": "COSMOS 2559 (707K)", "OBJECT_ID": "2022-130A", "EPOCH": "2025-11-30T21:36:02.630880", "MEAN_MOTION": 2.13101267, "ECCENTRICITY": 0.0012098, "INCLINATION": 64.3886, "RA_OF_ASC_NODE": 321.558, "ARG_OF_PERICENTER": 192.8205, "MEAN_ANOMALY": 167.1632, "EPHEMERIS_TYPE": 0, "CLASSIFICATION_TYPE": "U", "NORAD_CAT_ID": 54031, "ELEMENT_SET_NO": 999, "REV_AT_EPOCH": 2446, "BSTAR": 0, "MEAN_MOTION_DOT": -2.6e-07, "MEAN_MOTION_DDOT": 0}, "tle": {"line1": "1 54031U 22130A   25334.90003045 -.00000026  00000+0  00000+0 0  9996", "line2": "2 54031  64.3886 321.5580 0012098 192.8205 167.1632  2.13101267 24466"}}, "geometry": {"type": "Point", "coordinates": [-10.219039917296474, 44.6406536229927]}}, {"type": "Feature", "properties": {"norad_id": 54377, "name": "COSMOS 2564 (761)", "group": "gnss", "lat": 8.379843464044464, "lon": 15.258270133854204, "alt_km": 19111.257082915603, "timestamp": "2025-12-02T08:59:32.957915+00:00", "meta": {"OBJECT_NAME": "COSMOS 2564 (761)", "OBJECT_ID": "2022-161A", "EPOCH": "2025-12-01T05:07:31.965888", "MEAN_MOTION": 2.13101951, "ECCENTRICITY": 0.0008738, "INCLINATION": 64.7376, "RA_OF_ASC_NODE": 199.2819, "ARG_OF_PERICENTER": 206.5464, "MEAN_ANOMALY": 153.5009, "EPHEMERIS_TYPE": 0, "CLASSIFICATION_TYPE": "U", "NORAD_CAT_ID": 54377, "ELEMENT_SET_NO": 999, "REV_AT_EPOCH": 2341, "BSTAR": 0, "MEAN_MOTION_DOT": 1e-06, "MEAN_MOTION_DDOT": 0}, "tle": {"line1": "1 54377U 22161A   25335.21356442  .00000100  00000+0  00000+0 0  9992", "line2": "2 54377  64.7376 199.2819 0008738 206.5464 153.5009  2.13101951 23419"}}, "geometry": {"type": "Point", "coordinates": [15.258270133854204, 8.379843464044464]}}, {"type": "Feature", "properties": {"norad_id": 55268, "name": "GPS BIII-6  (PRN 28)", "group": "gnss", "lat": -53.67502917818153, "lon": 48.0008704114388, "alt_km": 20190.280449188478, "timestamp": "2025-12-02T08:59:32.957926+00:00", "meta": {"OBJECT_NAME": "GPS BIII-6  (PRN 28)", "OBJECT_ID": "2023-009A", "EPOCH": "2025-11-30T00:32:38.315616", "MEAN_MOTION": 2.00556632, "ECCENTRICITY": 0.00034826, "INCLINATION": 55.1054, "RA_OF_ASC_NODE": 156.3454, "ARG_OF_PERICENTER": 359.6796, "MEAN_ANOMALY": 1.4566, "EPHEMERIS_TYPE": 0, "CLASSIFICATION_TYPE": "U", "NORAD_CAT_ID": 55268, "ELEMENT_SET_NO": 999, "REV_AT_EPOCH": 2125, "BSTAR": 0, "MEAN_MOTION_DOT": 1.29e-06, "MEAN_MOTION_DDOT": 0}, "tle": {"line1": "1 55268U 23009A   25334.02266569  .00000129  00000+0  00000+0 0  9993", "line2": "2 55268  55.1054 156.3454 0003482 359.6796   1.4566  2.00556632 21259"}}, "geometry": {"type": "Point", "coordinates": [48.0008704114388, -53.67502917818153]}}, {"type": "Feature", "properties": {"norad_id": 56564, "name": "BEIDOU-3 G4 (C62)", "group": "gnss", "lat": 0.7828822526153376, "lon": 6.3968794814597505, "alt_km": 35800.18478663859, "timestamp": "2025-12-02T08:59:32.957937+00:00", "meta": {"OBJECT_NAME": "BEIDOU-3 G4 (C62)", "OBJECT_ID": "2023-066A", "EPOCH": "2025-12-02T04:16:27.185088", "MEAN_MOTION": 1.00271071, "ECCENTRICITY": 0.0003397, "INCLINATION": 0.84, "RA_OF_ASC_NODE": 301.1189, "ARG_OF_PERICENTER": 233.9085, "MEAN_ANOMALY": 120.4429, "EPHEMERIS_TYPE": 0, "CLASSIFICATION_TYPE": "U", "NORAD_CAT_ID": 56564, "ELEMENT_SET_NO": 999, "REV_AT_EPOCH": 941, "BSTAR": 0, "MEAN_MOTION_DOT": -9e-07, "MEAN_MOTION_DDOT": 0}, "tle": {"line1": "1 56564U 23066A   25336.17809242 -.00000090  00000+0  00000+0 0  9993", "line2": "2 56564   0.8400 301.1189 0003397 233.9085 120.4429  1.00271071  9410"}}, "geometry": {"type": "Point", "coordinates": [6.3968794814597505, 0.7828822526153376]}}, {"type": "Feature", "properties": {"norad_id": 56759, "name": "NVS-01 (IRNSS-1J)", "group": "gnss", "lat": 2.644587296023343, "lon": -24.020561806973706, "alt_km": 35779.514227366046, "timestamp": "2025-12-02T08:59:32.957949+00:00", "meta": {"OBJECT_NAME": "NVS-01 (IRNSS-1J)", "OBJECT_ID": "2023-076A", "EPOCH": "2025-12-02T04:07:35.533056", "MEAN_MOTION": 1.00267947, "ECCENTRICITY": 0.0008547, "INCLINATION": 2.6465, "RA_OF_ASC_NODE": 251.988, "ARG_OF_PERICENTER": 5.7439, "MEAN_ANOMALY": 5.0068, "EPHEMERIS_TYPE": 0, "CLASSIFICATION_TYPE": "U", "NORAD_CAT_ID": 56759, "ELEMENT_SET_NO": 999, "REV_AT_EPOCH": 914, "BSTAR": 0, "MEAN_MOTION_DOT": -3.13e-06, "MEAN_MOTION_DDOT": 0}, "tle": {"line1": "1 56759U 23076A   25336.17193904 -.00000313  00000+0  00000+0 0  9999", "line2": "2 56759   2.6465 251.9880 0008547   5.7439   5.0068  1.00267947  9141"}}, "geometry": {"type": "Point", "coordinates": [-24.020561806973706, 2.644587296023343]}}, {"type": "Feature", "properties": {"norad_id": 57517, "name": "COSMOS 2569 (703K)", "group": "gnss", "lat": 17.776974681062327, "lon": -109.25528956439962, "alt_km": 19143.27065062954, "timestamp": "2025-12-02T08:59:32.957963+00:00", "meta": {"OBJECT_NAME": "COSMOS 2569 (703K)", "OBJECT_ID": "2023-114A", "EPOCH": "2025-12-01T05:26:50.828352", "MEAN_MOTION": 2.13103848, "ECCENTRICITY": 0.0010073, "INCLINATION": 65.188, "RA_OF_ASC_NODE": 79.3026, "ARG_OF_PERICENTER": 287.0136, "MEAN_ANOMALY": 72.876, "EPHEMERIS_TYPE": 0, "CLASSIFICATION_TYPE": "U", "NORAD_CAT_ID": 57517, "ELEMENT_SET_NO": 999, "REV_AT_EPOCH": 1804, "BSTAR": 0, "MEAN_MOTION_DOT": -1.2e-07, "MEAN_MOTION_DDOT": 0}, "tle": {"line1": "1 57517U 23114A   25335.22697718 -.00000012  00000+0  00000+0 0  9998", "line2": "2 57517  65.1880  79.3026 0010073 287.0136  72.8760  2.13103848 18043"}}, "geometry": {"type": "Point", "coordinates": [-109.25528956439962, 17.776974681062327]}}, {"type": "Feature", "properties": {"norad_id": 58654, "name": "BEIDOU-3 M28 (C50)", "group": "gnss", "lat": 55.474555961433516, "lon": 164.41399367278817, "alt_km": 21527.137899181427, "timestamp": "2025-12-02T08:59:32.957974+00:00", "meta": {"OBJECT_NAME": "BEIDOU-3 M28 (C50)", "OBJECT_ID": "2023-207A", "EPOCH": "2025-12-01T03:53:10.155840", "MEAN_MOTION": 1.862296, "ECCENTRICITY": 0.00019433, "INCLINATION": 55.5745, "RA_OF_ASC_NODE": 68.9936, "ARG_OF_PERICENTER": 264.3364, "MEAN_ANOMALY": 95.6455, "EPHEMERIS_TYPE": 0, "CLASSIFICATION_TYPE": "U", "NORAD_CAT_ID": 58654, "ELEMENT_SET_NO": 999, "REV_AT_EPOCH": 1315, "BSTAR": 0, "MEAN_MOTION_DOT": -4e-07, "MEAN_MOTION_DDOT": 0}, "tle": {"line1": "1 58654U 23207A   25335.16192310 -.00000040  00000+0  00000+0 0  9996", "line2": "2 58654  55.5745  68.9936 0001943 264.3364  95.6455  1.86229600 13155"}}, "geometry": {"type": "Point", "coordinates": [164.41399367278817, 55.474555961433516]}}, {"type": "Feature", "properties": {"norad_id": 58655, "name": "BEIDOU-3 M26 (C48)", "group": "gnss", "lat": -38.30515869858009, "lon": -78.3184112475024, "alt_km": 21523.87109363523, "timestamp": "2025-12-02T08:59:32.957987+00:00", "meta": {"OBJECT_NAME": "BEIDOU-3 M26 (C48)", "OBJECT_ID": "2023-207B", "EPOCH": "2025-11-29T21:15:29.587968", "MEAN_MOTION": 1.86231123, "ECCENTRICITY": 0.00033719, "INCLINATION": 55.5753, "RA_OF_ASC_NODE": 69.0231, "ARG_OF_PERICENTER": 249.3814, "MEAN_ANOMALY": 110.59, "EPHEMERIS_TYPE": 0, "CLASSIFICATION_TYPE": "U", "NORAD_CAT_ID": 58655, "ELEMENT_SET_NO": 999, "REV_AT_EPOCH": 1311, "BSTAR": 0, "MEAN_MOTION_DOT": -3.1e-07, "MEAN_MOTION_DDOT": 0}, "tle": {"line1": "1 58655U 23207B   25333.88575912 -.00000031  00000+0  00000+0 0  9997", "line2": "2 58655  55.5753  69.0231 0003371 249.3814 110.5900  1.86231123 13116"}}, "geometry": {"type": "Point", "coordinates": [-78.3184112475024, -38.30515869858009]}}, {"type": "Feature", "properties": {"norad_id": 59598, "name": "GSAT0225 (GALILEO 29)", "group": "gnss", "lat": 29.397754170615045, "lon": 129.80941516745028, "alt_km": 23223.020635640587, "timestamp": "2025-12-02T08:59:32.957998+00:00", "meta": {"OBJECT_NAME": "GSAT0225 (GALILEO 29)", "OBJECT_ID": "2024-079A", "EPOCH": "2025-12-01T03:29:20.871744", "MEAN_MOTION": 1.70474544, "ECCENTRICITY": 0.0002155, "INCLINATION": 54.9941, "RA_OF_ASC_NODE": 106.6197, "ARG_OF_PERICENTER": 171.5653, "MEAN_ANOMALY": 190.7741, "EPHEMERIS_TYPE": 0, "CLASSIFICATION_TYPE": "U", "NORAD_CAT_ID": 59598, "ELEMENT_SET_NO": 999, "REV_AT_EPOCH": 994, "BSTAR": 0, "MEAN_MOTION_DOT": 4.1e-07, "MEAN_MOTION_DDOT": 0}, "tle": {"line1": "1 59598U 24079A   25335.14538046  .00000041  00000+0  00000+0 0  9990", "line2": "2 59598  54.9941 106.6197 0002155 171.5653 190.7741  1.70474544  9948"}}, "geometry": {"type": "Point", "coordinates": [129.80941516745028, 29.397754170615045]}}]}